CYGFM02                 
1 41886U 16078C   24293.90925296  .00032715  00000+0  10030-2 0  9994
2 41886  34.9456 213.9612 0014665 267.3397  92.5641 15.32689372435378
CYGFM01                 
1 41887U 16078D   24293.93766952  .00027727  00000+0  89736-3 0  9997
2 41887  34.9476 233.1287 0013202 246.8952 113.0372 15.31012584435114
CYGFM08                 
1 41888U 16078E   24293.94083578  .00028644  00000+0  89561-3 0  9990
2 41888  34.9485 220.0982 0014788 266.7130  93.1895 15.32086108435304
CYGFM07                 
1 41890U 16078G   24293.88995311  .00028752  00000+0  88877-3 0  9992
2 41890  34.9503 211.4783 0012826 280.9662  78.9612 15.32476853435296
CYGFM03                 
1 41891U 16078H   24293.86818583  .00031501  00000+0  97794-3 0  9990
2 41891  34.9462 212.9148 0011211 268.1252  91.8181 15.32343735435424
FENGYUN 3D              
1 43010U 17072A   24294.14701630  .00000577  00000+0  29563-3 0  9994
2 43010  98.9274 249.6256 0001676  20.3776 339.7466 14.19466328359142
NOAA 20 (JPSS-1)        
1 43013U 17073A   24294.16945305  .00000449  00000+0  23387-3 0  9995
2 43013  98.7156 230.0315 0001081 152.4330 207.6904 14.19542923358634
GOES 17                 
1 43226U 18022A   24293.64178726 -.00000093  00000+0  00000+0 0  9992
2 43226   0.0482  58.8080 0003151 174.8836 281.2828  1.00272377 24353
FENGYUN 2H              
1 43491U 18050A   24294.01785701 -.00000129  00000+0  00000+0 0  9996
2 43491   1.4640  86.0565 0001922 137.7454 250.7562  1.00267255 23441
METOP-C                 
1 43689U 18087A   24294.15184433  .00000619  00000+0  30276-3 0  9990
2 43689  98.7090 351.8783 0002569  93.4405 266.7066 14.21481915308872
GEO-KOMPSAT-2A          
1 43823U 18100A   24293.92896679 -.00000346  00000+0  00000+0 0  9998
2 43823   0.0583  60.7228 0001177  84.1461 346.7262  1.00273200 21595
METEOR-M2 2             
1 44387U 19038A   24294.15577172  .00000693  00000+0  32134-3 0  9996
2 44387  98.8445 263.9740 0001190  18.7533 341.3689 14.24027303275177
ARKTIKA-M 1             
1 47719U 21016A   24292.87356732  .00000103  00000+0  00000+0 0  9990
2 47719  63.1338 137.3944 6987195 268.5138  17.6444  2.00612126 26625
FENGYUN 3E              
1 49008U 21062A   24294.15561267  .00000201  00000+0  11549-3 0  9991
2 49008  98.7386 293.7961 0002392  55.6498 304.4904 14.19802055170720
GOES 18                 
1 51850U 22021A   24294.20674432  .00000093  00000+0  00000+0 0  9995
2 51850   0.0538  58.5883 0000811 213.5401  54.4873  1.00273163  9733
NOAA 21 (JPSS-2)        
1 54234U 22150A   24293.92439057  .00000486  00000+0  25138-3 0  9996
2 54234  98.7610 230.3928 0001963 107.7951 252.3439 14.19543287100673
METEOSAT-12 (MTG-I1)    
1 54743U 22170C   24293.84771343 -.00000008  00000+0  00000+0 0  9999
2 54743   0.6138  44.4547 0001603 125.5355 163.7774  1.00274168  6906
TIANMU-1 03             
1 55973U 23039A   24294.11803485  .00031807  00000+0  12122-2 0  9995
2 55973  97.4815  84.3803 0005457 101.4176 258.7676 15.26629452 87886
TIANMU-1 04             
1 55974U 23039B   24294.15838431  .00033383  00000+0  12663-2 0  9990
2 55974  97.4742  83.8736 0006514  98.4959 261.7018 15.26768471 87883
TIANMU-1 05             
1 55975U 23039C   24294.15082026  .00031343  00000+0  11948-2 0  9991
2 55975  97.4788  84.2531 0005157 116.9550 243.2215 15.26625363 87872
TIANMU-1 06             
1 55976U 23039D   24294.11760877  .00032025  00000+0  12118-2 0  9993
2 55976  97.4801  84.3988 0005584 115.3122 244.8695 15.26865068 87875
METEOR-M2 3             
1 57166U 23091A   24294.12326130  .00000168  00000+0  92327-4 0  9990
2 57166  98.6980 347.5884 0004956 120.8858 239.2809 14.23939984 68405
TIANMU-1 07             
1 57399U 23101A   24294.11528799  .00021443  00000+0  99890-3 0  9994
2 57399  97.3472 347.8686 0006224 109.2224 250.9685 15.19903225 69381
TIANMU-1 08             
1 57400U 23101B   24294.14999107  .00022121  00000+0  10290-2 0  9995
2 57400  97.3463 347.7588 0008516 113.6821 246.5309 15.19931893 69388
TIANMU-1 09             
1 57401U 23101C   24294.13193685  .00021257  00000+0  99140-3 0  9993
2 57401  97.3417 347.5124 0008303 111.4594 248.7528 15.19850775 69385
TIANMU-1 10             
1 57402U 23101D   24294.16543019  .00023919  00000+0  11138-2 0  9994
2 57402  97.3498 347.9487 0010410 110.6075 249.6278 15.19863044 69383
FENGYUN 3F              
1 57490U 23111A   24294.17286632  .00000451  00000+0  23326-3 0  9997
2 57490  98.7573   2.0810 0001942  93.6387 266.5011 14.19913224 63005
ARKTIKA-M 2             
1 58584U 23198A   24293.10596425  .00000106  00000+0  00000+0 0  9990
2 58584  63.2426 221.1987 6933812 269.6301  17.6628  2.00607061  6169
TIANMU-1 11             
1 58645U 23205A   24294.12011079  .00019399  00000+0  96657-3 0  9998
2 58645  97.3951 316.1256 0010089 340.7008  19.3843 15.17558267 45440
TIANMU-1 12             
1 58646U 23205B   24294.13505162  .00020608  00000+0  10294-2 0  9998
2 58646  97.3938 316.0488 0007807 334.9934  25.0920 15.17474775 45439
TIANMU-1 13             
1 58647U 23205C   24294.10238260  .00020038  00000+0  10008-2 0  9998
2 58647  97.3964 316.0582 0007732 311.2690  48.7877 15.17485023 45428
TIANMU-1 14             
1 58648U 23205D   24294.15218976  .00021547  00000+0  10754-2 0  9990
2 58648  97.3891 315.8498 0008476 314.8762  45.1783 15.17489480 45435
TIANMU-1 19             
1 58660U 23208A   24294.15237906  .00025102  00000+0  12405-2 0  9997
2 58660  97.4189  43.6802 0005489 289.9437  70.1205 15.17821626 45100
TIANMU-1 20             
1 58661U 23208B   24294.14236401  .00024975  00000+0  11906-2 0  9998
2 58661  97.4121  43.7107 0008385 302.4395  57.6028 15.19059615 45126
TIANMU-1 21             
1 58662U 23208C   24294.18412729  .00028324  00000+0  13038-2 0  9992
2 58662  97.4163  44.2631 0007978 301.4892  58.5563 15.20247165 45157
TIANMU-1 22             
1 58663U 23208D   24294.22608053  .00024765  00000+0  12131-2 0  9993
2 58663  97.4181  43.8281 0003970 321.5424  38.5527 15.18139387 45124
TIANMU-1 15             
1 58700U 24004A   24293.88365294  .00017020  00000+0  84936-3 0  9997
2 58700  97.4626 112.9199 0008772 342.5220  17.5710 15.17542165 43667
TIANMU-1 16             
1 58701U 24004B   24294.19303885  .00021948  00000+0  10920-2 0  9996
2 58701  97.4555 112.9933 0008889 346.4432  13.6561 15.17592776 43712
TIANMU-1 17             
1 58702U 24004C   24294.18044084  .00022691  00000+0  11279-2 0  9993
2 58702  97.4599 113.1743 0006863 344.1734  15.9284 15.17632492 43709
TIANMU-1 18             
1 58703U 24004D   24294.16343796  .00020551  00000+0  10231-2 0  9994
2 58703  97.4617 113.2563 0006234 335.7420  24.3519 15.17604344 43702
INSAT-3DS               
1 58990U 24033A   24293.80604969 -.00000159  00000+0  00000+0 0  9999
2 58990   0.0530  76.7581 0001750 142.0647 182.2393  1.00271534 40995
METEOR-M2 4             
1 59051U 24039A   24294.14806072  .00000254  00000+0  13357-3 0  9999
2 59051  98.6152 253.0594 0008024 117.4465 242.7530 14.22286172 33254
GOES 19                 
1 60133U 24119A   24293.37271662 -.00000184  00000+0  00000+0 0  9996
2 60133   0.0049 117.9927 0000349   6.3908 308.6641  1.00271802   881
2024-169A               
1 61189U 24169A   24294.19862893  .00025772  00000+0  16302-2 0  9990
2 61189  97.5963  19.2854 0010005 173.6477 186.4880 15.08945016  4521
2024-169B               
1 61190U 24169B   24294.19006400  .00026059  00000+0  16272-2 0  9991
2 61190  97.5868  19.2581 0009856 167.2538 192.8942 15.09416882  4528
2024-169C               
1 61191U 24169C   24294.17777300  .00026348  00000+0  16130-2 0  9998
2 61191  97.5943  19.3019 0010685 163.3476 196.8106 15.10130487  4522
2024-169D               
1 61192U 24169D   24294.23420935  .00028545  00000+0  17139-2 0  9996
2 61192  97.5869  19.3526 0013268 169.0302 191.1220 15.10793911  4537
2024-169E               
1 61193U 24169E   24294.16049038  .00026932  00000+0  15983-2 0  9993
2 61193  97.5968  19.3356 0014592 176.0498 184.0849 15.11213864  4526
2024-169F               
1 61194U 24169F   24294.21537616  .00027795  00000+0  16611-2 0  9991
2 61194  97.5945  19.4196 0012574 198.6895 184.6742 15.10976280  4530
2024-170A               
1 61195U 24170A   24294.13883937  .00001159  00000+0  68438-3 0  9996
2 61195  44.8578 323.9131 0006017  75.9965 284.1540 14.13233801  4191
2024-170B               
1 61196U 24170B   24294.14030331  .00001161  00000+0  68700-3 0  9995
2 61196  44.8591 323.9259 0006163  67.2887 292.8600 14.13092538  4190
2024-170C               
1 61197U 24170C   24294.23506686  .00001339  00000+0  80400-3 0  9995
2 61197  44.8563 323.5403 0006572  55.2935  45.9223 14.11542777  4205
2024-170D               
1 61198U 24170D   24289.54968671  .00001525  00000+0  88349-3 0  9997
2 61198  44.8619 344.9316 0007038  33.7091 326.4192 14.12900149  3562
KZ-1A R/B               
1 61199U 24170E   24294.16513852  .00195587  13636-4  16700-2 0  9996
2 61199  44.7447 305.6437 0477217 276.3344  78.3397 14.91452096  4432
STARLINK-11209 [DTC]    
1 61200U 24171A   24293.94357922  .00001626  00000+0  13921-4 0  9999
2 61200  53.1532 150.2966 0000988 318.5401  41.5545 15.76738958  5857
STARLINK-11257 [DTC]    
1 61201U 24171B   24294.00209959 -.00012374  00000+0 -71802-4 0  9990
2 61201  53.1540 149.9445 0001286 198.5415 161.5559 15.76700764  5871
STARLINK-11309 [DTC]    
1 61202U 24171C   24293.87042476  .00020391  00000+0  12796-3 0  9996
2 61202  53.1540 150.5449 0001199 107.5589 252.5563 15.76786741  5841
STARLINK-11292 [DTC]    
1 61203U 24171D   24293.86556473  .00003171  00000+0  23363-4 0  9993
2 61203  53.1561 150.5134 0001185  57.1963 302.9172 15.76729500  5843
